[{"OBJECT_NAME":"VSP RF B1","OBJECT_ID":"2024-043AR","EPOCH":"2026-03-09T22:40:29.479296","MEAN_MOTION":15.26694159,"ECCENTRICITY":0.00102608,"INCLINATION":97.5446,"RA_OF_ASC_NODE":204.7052,"ARG_OF_PERICENTER":220.7435,"MEAN_ANOMALY":139.3037,"EPHEMERIS_TYPE":0,"CLASSIFICATION_TYPE":"U","NORAD_CAT_ID":59137,"ELEMENT_SET_NO":999,"REV_AT_EPOCH":11187,"BSTAR":0.00024406819,"MEAN_MOTION_DOT":6.341e-5,"MEAN_MOTION_DDOT":0},{"OBJECT_NAME":"STARLINK-34139","OBJECT_ID":"2025-099Z","EPOCH":"2026-03-09T06:56:46.021056","MEAN_MOTION":15.27602669,"ECCENTRICITY":0.00031313,"INCLINATION":43.0025,"RA_OF_ASC_NODE":175.138,"ARG_OF_PERICENTER":286.4319,"MEAN_ANOMALY":73.6189,"EPHEMERIS_TYPE":0,"CLASSIFICATION_TYPE":"U","NORAD_CAT_ID":63975,"ELEMENT_SET_NO":999,"REV_AT_EPOCH":4722,"BSTAR":0.0014155329,"MEAN_MOTION_DOT":0.00038926,"MEAN_MOTION_DDOT":0}]
